SAUDISAT 1C (SO-50)     
1 27607U 02058C   26177.25860940  .00000937  00000+0  12777-3 0  9999
2 27607  64.5520 100.9188 0075048 260.7782  98.4830 14.83064844265804
SAUDISAT 2              
1 28371U 04025F   26177.23330549  .00000249  00000+0  66702-4 0  9993
2 28371  98.5508 177.4490 0023437 269.0233  90.8279 14.56688640167067
SAUDISAT 3              
1 31118U 07012B   26176.82695600  .00000238  00000+0  46632-4 0  9999
2 31118  98.1457 127.2332 0014208 194.8423 165.2368 14.71430111 29012
PISAT                   
1 41784U 16059B   26176.99901235  .00000862  00000+0  15416-3 0  9990
2 41784  97.8179 177.0732 0029119 174.3760 185.7778 14.68997282521034
FLYING LAPTOP           
1 42831U 17042G   26177.25081047  .00004183  00000+0  32906-3 0  9990
2 42831  97.4724 332.4369 0019972  92.7991 267.5520 15.01201603487812
SALSAT                  
1 46495U 20068K   26177.23713265  .00008443  00000+0  29407-3 0  9999
2 46495  97.8850 180.8533 0007806 269.3703  90.6642 15.29920409316745
